{
  "type": "FeatureCollection",
  "features": [
    {
      "type": "Feature",
      "properties": {
        "norad_id": 19071,
        "name": "OSCAR 32",
        "group": "nnss",
        "lat": 36.8705496698275,
        "lon": -162.9281590807596,
        "alt_km": 1009.724235154059,
        "timestamp": "2025-12-22T14:45:57.671171+00:00",
        "meta_object_name": "OSCAR 32",
        "meta_object_id": "1988-033B",
        "meta_epoch": "2025-12-21T19:01:45.302880",
        "meta_mean_motion": 13.27955349,
        "meta_eccentricity": 0.01890284,
        "meta_inclination": 90.3209,
        "meta_ra_of_asc_node": 16.8054,
        "meta_arg_of_pericenter": 141.7111,
        "meta_mean_anomaly": 32.0527,
        "meta_ephemeris_type": 0,
        "meta_classification_type": "U",
        "meta_norad_cat_id": 19071,
        "meta_element_set_no": 999,
        "meta_rev_at_epoch": 82385,
        "meta_bstar": 0.00015274589,
        "meta_mean_motion_dot": 8.6e-07,
        "meta_mean_motion_ddot": 0,
        "tle_line1": "1 19071U 88033B   25355.79288545  .00000086  00000+0  15275-3 0  9994",
        "tle_line2": "2 19071  90.3209  16.8054 0189028 141.7111  32.0527 13.27955349823854"
      },
      "geometry": {
        "type": "Point",
        "coordinates": [
          -162.9281590807596,
          36.8705496698275
        ]
      }
    },
    {
      "type": "Feature",
      "properties": {
        "norad_id": 19223,
        "name": "NOVA 2",
        "group": "nnss",
        "lat": 17.87051132999068,
        "lon": -101.74406851880264,
        "alt_km": 1196.157166402666,
        "timestamp": "2025-12-22T14:45:57.671182+00:00",
        "meta_object_name": "NOVA 2",
        "meta_object_id": "1988-052A",
        "meta_epoch": "2025-12-22T07:00:42.346656",
        "meta_mean_motion": 13.22936896,
        "meta_eccentricity": 0.00297744,
        "meta_inclination": 89.9868,
        "meta_ra_of_asc_node": 78.2606,
        "meta_arg_of_pericenter": 350.5098,
        "meta_mean_anomaly": 73.6018,
        "meta_ephemeris_type": 0,
        "meta_classification_type": "U",
        "meta_norad_cat_id": 19223,
        "meta_element_set_no": 999,
        "meta_rev_at_epoch": 81074,
        "meta_bstar": 0.0001756493,
        "meta_mean_motion_dot": 8.3e-07,
        "meta_mean_motion_ddot": 0,
        "tle_line1": "1 19223U 88052A   25356.29215679  .00000083  00000+0  17565-3 0  9999",
        "tle_line2": "2 19223  89.9868  78.2606 0029774 350.5098  73.6018 13.22936896810749"
      },
      "geometry": {
        "type": "Point",
        "coordinates": [
          -101.74406851880264,
          17.87051132999068
        ]
      }
    },
    {
      "type": "Feature",
      "properties": {
        "norad_id": 19419,
        "name": "OSCAR 25",
        "group": "nnss",
        "lat": -37.24933003560487,
        "lon": -159.7493109178409,
        "alt_km": 1034.8913376851515,
        "timestamp": "2025-12-22T14:45:57.671192+00:00",
        "meta_object_name": "OSCAR 25",
        "meta_object_id": "1988-074A",
        "meta_epoch": "2025-12-21T20:39:59.584320",
        "meta_mean_motion": 13.42625,
        "meta_eccentricity": 0.00949596,
        "meta_inclination": 90.0337,
        "meta_ra_of_asc_node": 20.2738,
        "meta_arg_of_pericenter": 219.4473,
        "meta_mean_anomaly": 314.7401,
        "meta_ephemeris_type": 0,
        "meta_classification_type": "U",
        "meta_norad_cat_id": 19419,
        "meta_element_set_no": 999,
        "meta_rev_at_epoch": 82762,
        "meta_bstar": 0.00014504358,
        "meta_mean_motion_dot": 9.3e-07,
        "meta_mean_motion_ddot": 0,
        "tle_line1": "1 19419U 88074A   25355.86110630  .00000093  00000+0  14504-3 0  9994",
        "tle_line2": "2 19419  90.0337  20.2738 0094959 219.4473 314.7401 13.42625000827624"
      },
      "geometry": {
        "type": "Point",
        "coordinates": [
          -159.7493109178409,
          -37.24933003560487
        ]
      }
    },
    {
      "type": "Feature",
      "properties": {
        "norad_id": 19420,
        "name": "OSCAR 31",
        "group": "nnss",
        "lat": 81.42425407673153,
        "lon": -159.1379880481302,
        "alt_km": 1118.9026751656247,
        "timestamp": "2025-12-22T14:45:57.671202+00:00",
        "meta_object_name": "OSCAR 31",
        "meta_object_id": "1988-074B",
        "meta_epoch": "2025-12-22T03:53:19.034304",
        "meta_mean_motion": 13.42586261,
        "meta_eccentricity": 0.00933578,
        "meta_inclination": 90.0353,
        "meta_ra_of_asc_node": 20.6262,
        "meta_arg_of_pericenter": 212.7151,
        "meta_mean_anomaly": 217.5501,
        "meta_ephemeris_type": 0,
        "meta_classification_type": "U",
        "meta_norad_cat_id": 19420,
        "meta_element_set_no": 999,
        "meta_rev_at_epoch": 82777,
        "meta_bstar": 0.00014692008,
        "meta_mean_motion_dot": 9.4e-07,
        "meta_mean_motion_ddot": 0,
        "tle_line1": "1 19420U 88074B   25356.16202586  .00000094  00000+0  14692-3 0  9991",
        "tle_line2": "2 19420  90.0353  20.6262 0093357 212.7151 217.5501 13.42586261827772"
      },
      "geometry": {
        "type": "Point",
        "coordinates": [
          -159.1379880481302,
          81.42425407673153
        ]
      }
    }
  ]
}